{
  "type": "FeatureCollection",
  "features": [
    {
      "type": "Feature",
      "properties": {
        "norad_id": 43647,
        "name": "BEIDOU-3 M16 (C35)",
        "group": "gnss",
        "lat": -25.233022545374258,
        "lon": 145.8508323158402,
        "alt_km": 21551.747700319083,
        "timestamp": "2025-12-26T10:30:50.510686+00:00",
        "meta_object_name": "BEIDOU-3 M16 (C35)",
        "meta_object_id": "2018-078A",
        "meta_epoch": "2025-12-25T14:03:06.964128",
        "meta_mean_motion": 1.86232241,
        "meta_eccentricity": 0.0007497,
        "meta_inclination": 54.2499,
        "meta_ra_of_asc_node": 306.0723,
        "meta_arg_of_pericenter": 20.7001,
        "meta_mean_anomaly": 339.3399,
        "meta_ephemeris_type": 0,
        "meta_classification_type": "U",
        "meta_norad_cat_id": 43647,
        "meta_element_set_no": 999,
        "meta_rev_at_epoch": 4892,
        "meta_bstar": 0,
        "meta_mean_motion_dot": -5.4e-07,
        "meta_mean_motion_ddot": 0,
        "tle_line1": "1 43647U 18078A   25359.58549727 -.00000054  00000+0  00000+0 0  9997",
        "tle_line2": "2 43647  54.2499 306.0723 0007497  20.7001 339.3399  1.86232241 48928"
      },
      "geometry": {
        "type": "Point",
        "coordinates": [
          145.8508323158402,
          -25.233022545374258
        ]
      }
    },
    {
      "type": "Feature",
      "properties": {
        "norad_id": 43648,
        "name": "BEIDOU-3 M15 (C34)",
        "group": "gnss",
        "lat": 41.6179935982796,
        "lon": 86.27996070488821,
        "alt_km": 21525.87500181482,
        "timestamp": "2025-12-26T10:30:50.510704+00:00",
        "meta_object_name": "BEIDOU-3 M15 (C34)",
        "meta_object_id": "2018-078B",
        "meta_epoch": "2025-12-25T17:09:11.649024",
        "meta_mean_motion": 1.86232344,
        "meta_eccentricity": 0.0004079,
        "meta_inclination": 54.2458,
        "meta_ra_of_asc_node": 306.069,
        "meta_arg_of_pericenter": 19.7485,
        "meta_mean_anomaly": 340.2771,
        "meta_ephemeris_type": 0,
        "meta_classification_type": "U",
        "meta_norad_cat_id": 43648,
        "meta_element_set_no": 999,
        "meta_rev_at_epoch": 4894,
        "meta_bstar": 0,
        "meta_mean_motion_dot": -5.4e-07,
        "meta_mean_motion_ddot": 0,
        "tle_line1": "1 43648U 18078B   25359.71471816 -.00000054  00000+0  00000+0 0  9996",
        "tle_line2": "2 43648  54.2458 306.0690 0004079  19.7485 340.2771  1.86232344 48945"
      },
      "geometry": {
        "type": "Point",
        "coordinates": [
          86.27996070488821,
          41.6179935982796
        ]
      }
    },
    {
      "type": "Feature",
      "properties": {
        "norad_id": 43683,
        "name": "BEIDOU-3 G1 (C59)",
        "group": "gnss",
        "lat": -2.4705830601829333,
        "lon": 32.8171778100298,
        "alt_km": 35790.841816775035,
        "timestamp": "2025-12-26T10:30:50.510725+00:00",
        "meta_object_name": "BEIDOU-3 G1 (C59)",
        "meta_object_id": "2018-085A",
        "meta_epoch": "2025-12-26T05:08:26.429856",
        "meta_mean_motion": 1.0026556,
        "meta_eccentricity": 0.0001266,
        "meta_inclination": 2.6395,
        "meta_ra_of_asc_node": 102.5209,
        "meta_arg_of_pericenter": 50.4767,
        "meta_mean_anomaly": 159.0004,
        "meta_ephemeris_type": 0,
        "meta_classification_type": "U",
        "meta_norad_cat_id": 43683,
        "meta_element_set_no": 999,
        "meta_rev_at_epoch": 2632,
        "meta_bstar": 0,
        "meta_mean_motion_dot": -2.58e-06,
        "meta_mean_motion_ddot": 0,
        "tle_line1": "1 43683U 18085A   25360.21419479 -.00000258  00000+0  00000+0 0  9993",
        "tle_line2": "2 43683   2.6395 102.5209 0001266  50.4767 159.0004  1.00265560 26321"
      },
      "geometry": {
        "type": "Point",
        "coordinates": [
          32.8171778100298,
          -2.4705830601829333
        ]
      }
    },
    {
      "type": "Feature",
      "properties": {
        "norad_id": 43687,
        "name": "COSMOS 2529 (757)",
        "group": "gnss",
        "lat": -37.74041237652069,
        "lon": 176.52795646376237,
        "alt_km": 19126.840476757417,
        "timestamp": "2025-12-26T10:30:50.510746+00:00",
        "meta_object_name": "COSMOS 2529 (757)",
        "meta_object_id": "2018-086A",
        "meta_epoch": "2025-12-23T05:01:04.327104",
        "meta_mean_motion": 2.13102131,
        "meta_eccentricity": 0.0006897,
        "meta_inclination": 64.2927,
        "meta_ra_of_asc_node": 198.5346,
        "meta_arg_of_pericenter": 253.659,
        "meta_mean_anomaly": 106.3281,
        "meta_ephemeris_type": 0,
        "meta_classification_type": "U",
        "meta_norad_cat_id": 43687,
        "meta_element_set_no": 999,
        "meta_rev_at_epoch": 5553,
        "meta_bstar": 0,
        "meta_mean_motion_dot": 9.5e-07,
        "meta_mean_motion_ddot": 0,
        "tle_line1": "1 43687U 18086A   25357.20907786  .00000095  00000+0  00000+0 0  9994",
        "tle_line2": "2 43687  64.2927 198.5346 0006897 253.6590 106.3281  2.13102131 55539"
      },
      "geometry": {
        "type": "Point",
        "coordinates": [
          176.52795646376237,
          -37.74041237652069
        ]
      }
    },
    {
      "type": "Feature",
      "properties": {
        "norad_id": 43706,
        "name": "BEIDOU-3 M17 (C36)",
        "group": "gnss",
        "lat": 14.983061709904831,
        "lon": -160.68925218633115,
        "alt_km": 21521.330091825737,
        "timestamp": "2025-12-26T10:30:50.510763+00:00",
        "meta_object_name": "BEIDOU-3 M17 (C36)",
        "meta_object_id": "2018-093A",
        "meta_epoch": "2025-12-26T03:36:39.806208",
        "meta_mean_motion": 1.86228273,
        "meta_eccentricity": 0.0005994,
        "meta_inclination": 54.1735,
        "meta_ra_of_asc_node": 188.1665,
        "meta_arg_of_pericenter": 306.9478,
        "meta_mean_anomaly": 238.7851,
        "meta_ephemeris_type": 0,
        "meta_classification_type": "U",
        "meta_norad_cat_id": 43706,
        "meta_element_set_no": 999,
        "meta_rev_at_epoch": 4831,
        "meta_bstar": 0,
        "meta_mean_motion_dot": 1.19e-06,
        "meta_mean_motion_ddot": 0,
        "tle_line1": "1 43706U 18093A   25360.15046072  .00000119  00000+0  00000+0 0  9991",
        "tle_line2": "2 43706  54.1735 188.1665 0005994 306.9478 238.7851  1.86228273 48315"
      },
      "geometry": {
        "type": "Point",
        "coordinates": [
          -160.68925218633115,
          14.983061709904831
        ]
      }
    },
    {
      "type": "Feature",
      "properties": {
        "norad_id": 43707,
        "name": "BEIDOU-3 M18 (C37)",
        "group": "gnss",
        "lat": 48.978743239523,
        "lon": -48.01831186727402,
        "alt_km": 21530.48105556806,
        "timestamp": "2025-12-26T10:30:50.510783+00:00",
        "meta_object_name": "BEIDOU-3 M18 (C37)",
        "meta_object_id": "2018-093B",
        "meta_epoch": "2025-12-23T01:12:21.238848",
        "meta_mean_motion": 1.86226616,
        "meta_eccentricity": 0.0006147,
        "meta_inclination": 54.1741,
        "meta_ra_of_asc_node": 188.2636,
        "meta_arg_of_pericenter": 354.1254,
        "meta_mean_anomaly": 5.9078,
        "meta_ephemeris_type": 0,
        "meta_classification_type": "U",
        "meta_norad_cat_id": 43707,
        "meta_element_set_no": 999,
        "meta_rev_at_epoch": 4825,
        "meta_bstar": 0,
        "meta_mean_motion_dot": 9.6e-07,
        "meta_mean_motion_ddot": 0,
        "tle_line1": "1 43707U 18093B   25357.05024582  .00000096  00000+0  00000+0 0  9993",
        "tle_line2": "2 43707  54.1741 188.2636 0006147 354.1254   5.9078  1.86226616 48257"
      },
      "geometry": {
        "type": "Point",
        "coordinates": [
          -48.01831186727402,
          48.978743239523
        ]
      }
    },
    {
      "type": "Feature",
      "properties": {
        "norad_id": 43873,
        "name": "GPS BIII-1  (PRN 04)",
        "group": "gnss",
        "lat": -36.255031138233136,
        "lon": 68.85790594921993,
        "alt_km": 20235.175258702377,
        "timestamp": "2025-12-26T10:30:50.510802+00:00",
        "meta_object_name": "GPS BIII-1  (PRN 04)",
        "meta_object_id": "2018-109A",
        "meta_epoch": "2025-12-24T12:17:00.757248",
        "meta_mean_motion": 2.00553945,
        "meta_eccentricity": 0.00376159,
        "meta_inclination": 55.5731,
        "meta_ra_of_asc_node": 99.0827,
        "meta_arg_of_pericenter": 195.5593,
        "meta_mean_anomaly": 167.4766,
        "meta_ephemeris_type": 0,
        "meta_classification_type": "U",
        "meta_norad_cat_id": 43873,
        "meta_element_set_no": 999,
        "meta_rev_at_epoch": 5157,
        "meta_bstar": 0,
        "meta_mean_motion_dot": 1.7e-07,
        "meta_mean_motion_ddot": 0,
        "tle_line1": "1 43873U 18109A   25358.51181432  .00000017  00000+0  00000+0 0  9998",
        "tle_line2": "2 43873  55.5731  99.0827 0037615 195.5593 167.4766  2.00553945 51575"
      },
      "geometry": {
        "type": "Point",
        "coordinates": [
          68.85790594921993,
          -36.255031138233136
        ]
      }
    }
  ]
}